{
  "type": "FeatureCollection",
  "features": [
    {
      "type": "Feature",
      "properties": {
        "norad_id": 41948,
        "name": "CARTOSAT-2D",
        "group": "resource",
        "lat": 60.449827413329224,
        "lon": -107.47986001894994,
        "alt_km": 498.66643189964725,
        "timestamp": "2025-12-27T22:26:48.270491+00:00",
        "meta_object_name": "CARTOSAT-2D",
        "meta_object_id": "2017-008A",
        "meta_epoch": "2025-12-27T12:26:31.539840",
        "meta_mean_motion": 15.19217958,
        "meta_eccentricity": 0.0005392,
        "meta_inclination": 97.4366,
        "meta_ra_of_asc_node": 58.7894,
        "meta_arg_of_pericenter": 112.0811,
        "meta_mean_anomaly": 248.0996,
        "meta_ephemeris_type": 0,
        "meta_classification_type": "U",
        "meta_norad_cat_id": 41948,
        "meta_element_set_no": 999,
        "meta_rev_at_epoch": 49151,
        "meta_bstar": 0.00042242,
        "meta_mean_motion_dot": 8.834e-05,
        "meta_mean_motion_ddot": 0,
        "tle_line1": "1 41948U 17008A   25361.51842060  .00008834  00000+0  42242-3 0  9994",
        "tle_line2": "2 41948  97.4366  58.7894 0005392 112.0811 248.0996 15.19217958491513"
      },
      "geometry": {
        "type": "Point",
        "coordinates": [
          -107.47986001894994,
          60.449827413329224
        ]
      }
    },
    {
      "type": "Feature",
      "properties": {
        "norad_id": 42063,
        "name": "SENTINEL-2B",
        "group": "resource",
        "lat": -67.68103799784717,
        "lon": 95.71633135388522,
        "alt_km": 797.0104631343065,
        "timestamp": "2025-12-27T22:26:48.270501+00:00",
        "meta_object_name": "SENTINEL-2B",
        "meta_object_id": "2017-013A",
        "meta_epoch": "2025-12-27T11:01:19.276896",
        "meta_mean_motion": 14.30817952,
        "meta_eccentricity": 0.000118,
        "meta_inclination": 98.5694,
        "meta_ra_of_asc_node": 73.6974,
        "meta_arg_of_pericenter": 89.6737,
        "meta_mean_anomaly": 270.4581,
        "meta_ephemeris_type": 0,
        "meta_classification_type": "U",
        "meta_norad_cat_id": 42063,
        "meta_element_set_no": 999,
        "meta_rev_at_epoch": 46008,
        "meta_bstar": 0.00021271,
        "meta_mean_motion_dot": 5.14e-06,
        "meta_mean_motion_ddot": 0,
        "tle_line1": "1 42063U 17013A   25361.45925089  .00000514  00000+0  21271-3 0  9991",
        "tle_line2": "2 42063  98.5694  73.6974 0001180  89.6737 270.4581 14.30817952460089"
      },
      "geometry": {
        "type": "Point",
        "coordinates": [
          95.71633135388522,
          -67.68103799784717
        ]
      }
    },
    {
      "type": "Feature",
      "properties": {
        "norad_id": 42767,
        "name": "CARTOSAT-2E",
        "group": "resource",
        "lat": 27.565182691652563,
        "lon": 55.40348170782713,
        "alt_km": 508.46155894567437,
        "timestamp": "2025-12-27T22:26:48.270511+00:00",
        "meta_object_name": "CARTOSAT-2E",
        "meta_object_id": "2017-036C",
        "meta_epoch": "2025-12-27T11:15:33.430752",
        "meta_mean_motion": 15.19222422,
        "meta_eccentricity": 0.0002737,
        "meta_inclination": 97.4534,
        "meta_ra_of_asc_node": 58.8622,
        "meta_arg_of_pericenter": 165.2597,
        "meta_mean_anomaly": 194.8718,
        "meta_ephemeris_type": 0,
        "meta_classification_type": "U",
        "meta_norad_cat_id": 42767,
        "meta_element_set_no": 999,
        "meta_rev_at_epoch": 47207,
        "meta_bstar": 0.00034713,
        "meta_mean_motion_dot": 7.245e-05,
        "meta_mean_motion_ddot": 0,
        "tle_line1": "1 42767U 17036C   25361.46913693  .00007245  00000+0  34713-3 0  9999",
        "tle_line2": "2 42767  97.4534  58.8622 0002737 165.2597 194.8718 15.19222422472073"
      },
      "geometry": {
        "type": "Point",
        "coordinates": [
          55.40348170782713,
          27.565182691652563
        ]
      }
    },
    {
      "type": "Feature",
      "properties": {
        "norad_id": 42920,
        "name": "FORMOSAT-5",
        "group": "resource",
        "lat": -53.73580490965472,
        "lon": 87.34497518612207,
        "alt_km": 726.1900850037355,
        "timestamp": "2025-12-27T22:26:48.270520+00:00",
        "meta_object_name": "FORMOSAT-5",
        "meta_object_id": "2017-049A",
        "meta_epoch": "2025-12-27T11:06:39.168576",
        "meta_mean_motion": 14.50769171,
        "meta_eccentricity": 0.0009872,
        "meta_inclination": 98.2436,
        "meta_ra_of_asc_node": 75.4847,
        "meta_arg_of_pericenter": 251.0983,
        "meta_mean_anomaly": 108.9142,
        "meta_ephemeris_type": 0,
        "meta_classification_type": "U",
        "meta_norad_cat_id": 42920,
        "meta_element_set_no": 999,
        "meta_rev_at_epoch": 44177,
        "meta_bstar": 7.9568e-05,
        "meta_mean_motion_dot": 2.69e-06,
        "meta_mean_motion_ddot": 0,
        "tle_line1": "1 42920U 17049A   25361.46295334  .00000269  00000+0  79568-4 0  9996",
        "tle_line2": "2 42920  98.2436  75.4847 0009872 251.0983 108.9142 14.50769171441779"
      },
      "geometry": {
        "type": "Point",
        "coordinates": [
          87.34497518612207,
          -53.73580490965472
        ]
      }
    },
    {
      "type": "Feature",
      "properties": {
        "norad_id": 42969,
        "name": "SENTINEL-5P",
        "group": "resource",
        "lat": 69.5025892733912,
        "lon": -84.0346435511693,
        "alt_km": 819.4681275899811,
        "timestamp": "2025-12-27T22:26:48.270531+00:00",
        "meta_object_name": "SENTINEL-5P",
        "meta_object_id": "2017-064A",
        "meta_epoch": "2025-12-27T08:34:42.004704",
        "meta_mean_motion": 14.19521219,
        "meta_eccentricity": 0.0001066,
        "meta_inclination": 98.7803,
        "meta_ra_of_asc_node": 299.8132,
        "meta_arg_of_pericenter": 91.175,
        "meta_mean_anomaly": 268.9548,
        "meta_ephemeris_type": 0,
        "meta_classification_type": "U",
        "meta_norad_cat_id": 42969,
        "meta_element_set_no": 999,
        "meta_rev_at_epoch": 42518,
        "meta_bstar": 7.2357e-05,
        "meta_mean_motion_dot": 1.08e-06,
        "meta_mean_motion_ddot": 0,
        "tle_line1": "1 42969U 17064A   25361.35743061  .00000108  00000+0  72357-4 0  9990",
        "tle_line2": "2 42969  98.7803 299.8132 0001066  91.1750 268.9548 14.19521219425184"
      },
      "geometry": {
        "type": "Point",
        "coordinates": [
          -84.0346435511693,
          69.5025892733912
        ]
      }
    },
    {
      "type": "Feature",
      "properties": {
        "norad_id": 42987,
        "name": "SKYSAT-C11",
        "group": "resource",
        "lat": -11.035410911254939,
        "lon": 141.26535151144816,
        "alt_km": 426.8234268873066,
        "timestamp": "2025-12-27T22:26:48.270540+00:00",
        "meta_object_name": "SKYSAT-C11",
        "meta_object_id": "2017-068A",
        "meta_epoch": "2025-12-27T08:31:58.852128",
        "meta_mean_motion": 15.48089596,
        "meta_eccentricity": 0.0001167,
        "meta_inclination": 97.4147,
        "meta_ra_of_asc_node": 139.2154,
        "meta_arg_of_pericenter": 92.1165,
        "meta_mean_anomaly": 268.0219,
        "meta_ephemeris_type": 0,
        "meta_classification_type": "U",
        "meta_norad_cat_id": 42987,
        "meta_element_set_no": 999,
        "meta_rev_at_epoch": 45657,
        "meta_bstar": 0.0004832,
        "meta_mean_motion_dot": 0.00025283,
        "meta_mean_motion_ddot": 0,
        "tle_line1": "1 42987U 17068A   25361.35554227  .00025283  00000+0  48320-3 0  9991",
        "tle_line2": "2 42987  97.4147 139.2154 0001167  92.1165 268.0219 15.48089596456578"
      },
      "geometry": {
        "type": "Point",
        "coordinates": [
          141.26535151144816,
          -11.035410911254939
        ]
      }
    },
    {
      "type": "Feature",
      "properties": {
        "norad_id": 42988,
        "name": "SKYSAT-C10",
        "group": "resource",
        "lat": -66.16886102692621,
        "lon": 150.00454504615558,
        "alt_km": 480.40083671879165,
        "timestamp": "2025-12-27T22:26:48.270550+00:00",
        "meta_object_name": "SKYSAT-C10",
        "meta_object_id": "2017-068B",
        "meta_epoch": "2025-12-27T02:21:25.171200",
        "meta_mean_motion": 15.31645862,
        "meta_eccentricity": 0.00035297,
        "meta_inclination": 97.4265,
        "meta_ra_of_asc_node": 131.9896,
        "meta_arg_of_pericenter": 96.9567,
        "meta_mean_anomaly": 263.2076,
        "meta_ephemeris_type": 0,
        "meta_classification_type": "U",
        "meta_norad_cat_id": 42988,
        "meta_element_set_no": 999,
        "meta_rev_at_epoch": 45599,
        "meta_bstar": 0.00037534092,
        "meta_mean_motion_dot": 0.00011398,
        "meta_mean_motion_ddot": 0,
        "tle_line1": "1 42988U 17068B   25361.09820800  .00011398  00000+0  37534-3 0  9993",
        "tle_line2": "2 42988  97.4265 131.9896 0003529  96.9567 263.2076 15.31645862455993"
      },
      "geometry": {
        "type": "Point",
        "coordinates": [
          150.00454504615558,
          -66.16886102692621
        ]
      }
    }
  ]
}